{
    "links": {
        "self": "http://www.neowsapp.com/rest/v1/neo/3789546?api_key=iIulBulltgU6a56xZRHN4H3l9WmuAYTsLGpBGhQ2"
    },
    "id": "3789546",
    "neo_reference_id": "3789546",
    "name": "(2017 WK2)",
    "designation": "2017 WK2",
    "nasa_jpl_url": "http://ssd.jpl.nasa.gov/sbdb.cgi?sstr=3789546",
    "absolute_magnitude_h": 23.9,
    "estimated_diameter": {
        "kilometers": {
            "estimated_diameter_min": 0.04411182,
            "estimated_diameter_max": 0.0986370281
        },
        "meters": {
            "estimated_diameter_min": 44.1118199997,
            "estimated_diameter_max": 98.6370281305
        },
        "miles": {
            "estimated_diameter_min": 0.0274098057,
            "estimated_diameter_max": 0.0612901888
        },
        "feet": {
            "estimated_diameter_min": 144.7238235278,
            "estimated_diameter_max": 323.6123073718
        }
    },
    "is_potentially_hazardous_asteroid": false,
    "close_approach_data": [
        {
            "close_approach_date": "2016-04-21",
            "close_approach_date_full": "2016-Apr-21 14:06",
            "epoch_date_close_approach": 1461247560000,
            "relative_velocity": {
                "kilometers_per_second": "23.5999890864",
                "kilometers_per_hour": "84959.9607108694",
                "miles_per_hour": "52790.8155872621"
            },
            "miss_distance": {
                "astronomical": "0.2344214509",
                "lunar": "91.1899444001",
                "kilometers": "35068949.736949583",
                "miles": "21790834.9120989254"
            },
            "orbiting_body": "Earth"
        },
        {
            "close_approach_date": "2017-11-13",
            "close_approach_date_full": "2017-Nov-13 06:18",
            "epoch_date_close_approach": 1510553880000,
            "relative_velocity": {
                "kilometers_per_second": "20.0591639975",
                "kilometers_per_hour": "72212.9903910425",
                "miles_per_hour": "44870.3439460341"
            },
            "miss_distance": {
                "astronomical": "0.0825423764",
                "lunar": "32.1089844196",
                "kilometers": "12348163.694178268",
                "miles": "7672793.1274173784"
            },
            "orbiting_body": "Earth"
        }
    ],
    "orbital_data": {
        "orbit_id": "2",
        "orbit_determination_date": "2017-11-27 06:24:30",
        "first_observation_date": "2017-11-19",
        "last_observation_date": "2017-11-27",
        "data_arc_in_days": 8,
        "observations_used": 29,
        "orbit_uncertainty": "9",
        "minimum_orbit_intersection": ".0780507",
        "jupiter_tisserand_invariant": "5.216",
        "epoch_osculation": "2458077.5",
        "eccentricity": ".4547696580639144",
        "semi_major_axis": "1.165980556379011",
        "inclination": "26.74434369982124",
        "ascending_node_longitude": "56.8678532773417",
        "orbital_period": "459.8703286433837",
        "perihelion_distance": ".6357279774453556",
        "perihelion_argument": "248.3862514754054",
        "aphelion_distance": "1.696233135312667",
        "perihelion_time": "2458006.599547636681",
        "mean_anomaly": "55.50295650969929",
        "mean_motion": ".7828293707532711",
        "equinox": "J2000",
        "orbit_class": {
            "orbit_class_type": "APO",
            "orbit_class_description": "Near-Earth asteroid orbits which cross the Earth’s orbit similar to that of 1862 Apollo",
            "orbit_class_range": "a (semi-major axis) > 1.0 AU; q (perihelion) < 1.017 AU"
        }
    },
    "is_sentry_object": false
}